NORAD_CAT_ID,OBJECT_NAME,OBJECT_TYPE,EPOCH,MEAN_MOTION,ECCENTRICITY,INCLINATION,RA_OF_ASC_NODE,ARG_OF_PERICENTER,MEAN_ANOMALY,BSTAR,MEAN_MOTION_DOT,MEAN_MOTION_DDOT,TLE_LINE0,TLE_LINE1,TLE_LINE2,SEMIMAJOR_AXIS,PERIOD,APOGEE,PERIGEE,DECAYED
52488.0,STARLINK-3892,PAYLOAD,2023-05-24 02:51:16,15.08841008,8.71e-05,53.2172,320.6399,64.5042,295.604,0.00014278,1.985e-05,0.0,0 STARLINK-3892,1 52488U 22049AP  23144.11894526  .00001985  00000-0  14278-3 0  9992,2 52488  53.2172 320.6399 0000871  64.5042 295.6040 15.08841008 58349,6917.877,95.437,540.345,539.14,0.0
52488.0,STARLINK-3892,PAYLOAD,2023-05-24 15:34:21,15.08848735,8.54e-05,53.2169,318.2608,84.7274,275.3815,0.00054783,8.444e-05,0.0,0 STARLINK-3892,1 52488U 22049AP  23144.64886462  .00008444  00000-0  54783-3 0  9992,2 52488  53.2169 318.2608 0000854  84.7274 275.3815 15.08848735 58263,6917.854,95.437,540.309,539.128,0.0
52488.0,STARLINK-3892,PAYLOAD,2023-05-25 18:35:55,15.08844287,7.92e-05,53.2167,313.2063,77.0882,283.0199,0.00037345,5.661e-05,0.0,0 STARLINK-3892,1 52488U 22049AP  23145.77494717  .00005661  00000-0  37345-3 0  9998,2 52488  53.2167 313.2063 0000792  77.0882 283.0199 15.08844287 58597,6917.867,95.437,540.28,539.184,0.0
52488.0,STARLINK-3892,PAYLOAD,2023-05-25 21:46:41,15.08849227,7.39e-05,53.2166,312.6118,73.3846,286.7227,0.00049772,7.644e-05,0.0,0 STARLINK-3892,1 52488U 22049AP  23145.90742559  .00007644  00000-0  49772-3 0  9993,2 52488  53.2166 312.6118 0000739  73.3846 286.7227 15.08849227 58456,6917.852,95.437,540.228,539.206,0.0
52488.0,STARLINK-3892,PAYLOAD,2023-05-26 18:26:42,15.08842926,9.98e-05,53.2165,308.7455,73.5132,286.597,0.0002036,2.954e-05,0.0,0 STARLINK-3892,1 52488U 22049AP  23146.76854851  .00002954  00000-0  20360-3 0  9998,2 52488  53.2165 308.7455 0000998  73.5132 286.5970 15.08842926 58746,6917.871,95.437,540.427,539.046,0.0
52488.0,STARLINK-3892,PAYLOAD,2023-05-26 20:02:05,15.0884506,8.91e-05,53.2165,308.4478,87.7232,272.3862,0.00021252,3.097e-05,0.0,0 STARLINK-3892,1 52488U 22049AP  23146.83478686  .00003097  00000-0  21252-3 0  9994,2 52488  53.2165 308.4478 0000891  87.7232 272.3862 15.08845060 58596,6917.865,95.437,540.346,539.114,0.0
52488.0,STARLINK-3892,PAYLOAD,2023-05-27 10:20:34,15.08837137,8.36e-05,53.2164,305.7705,100.3373,259.7713,8.269e-05,1.028e-05,0.0,0 STARLINK-3892,1 52488U 22049AP  23147.43095089  .00001028  00000-0  82690-4 0  9999,2 52488  53.2164 305.7705 0000836 100.3373 259.7713 15.08837137 58843,6917.889,95.438,540.332,539.176,0.0
52488.0,STARLINK-3892,PAYLOAD,2023-05-27 18:17:29,15.08843476,8.36e-05,53.2164,304.2839,98.821,261.2876,0.00010278,1.349e-05,0.0,0 STARLINK-3892,1 52488U 22049AP  23147.76214761  .00001349  00000-0  10278-3 0  9993,2 52488  53.2164 304.2839 0000836  98.8210 261.2876 15.08843476 58735,6917.87,95.437,540.313,539.156,0.0
52488.0,STARLINK-3892,PAYLOAD,2023-05-28 03:49:48,15.08842762,8.15e-05,53.2165,302.4997,97.9898,262.1186,0.0001128,1.508e-05,0.0,0 STARLINK-3892,1 52488U 22049AP  23148.15958822  .00001508  00000-0  11280-3 0  9991,2 52488  53.2165 302.4997 0000815  97.9898 262.1186 15.08842762 58797,6917.872,95.437,540.301,539.173,0.0
52488.0,STARLINK-3892,PAYLOAD,2023-05-28 16:32:53,15.08849731,7.93e-05,53.2169,300.1222,90.5906,269.5177,0.00010988,1.462e-05,0.0,0 STARLINK-3892,1 52488U 22049AP  23148.68950360  .00001462  00000-0  10988-3 0  9991,2 52488  53.2169 300.1222 0000793  90.5906 269.5177 15.08849731 59033,6917.851,95.437,540.264,539.167,0.0
52488.0,STARLINK-3892,PAYLOAD,2023-05-29 14:48:17,15.08836992,8.16e-05,53.2171,295.9595,86.9631,273.1455,4.1744e-05,3.77e-06,0.0,0 STARLINK-3892,1 52488U 22049AP  23149.61687077  .00000377  00000-0  41744-4 0  9996,2 52488  53.2171 295.9595 0000816  86.9631 273.1455 15.08836992 59013,6917.89,95.438,540.319,539.19,0.0
52488.0,STARLINK-3892,PAYLOAD,2023-05-29 16:23:40,15.08839049,8.32e-05,53.2179,295.6605,98.6257,261.4829,8.7591e-05,1.107e-05,0.0,0 STARLINK-3892,1 52488U 22049AP  23149.68310755  .00001107  00000-0  87591-4 0  9991,2 52488  53.2179 295.6605 0000832  98.6257 261.4829 15.08839049 59181,6917.883,95.438,540.324,539.173,0.0
52488.0,STARLINK-3892,PAYLOAD,2023-05-30 11:28:18,15.08834628,7.83e-05,53.2187,292.0922,101.6022,258.5058,4.4925e-05,4.27e-06,0.0,0 STARLINK-3892,1 52488U 22049AP  23150.47799119  .00000427  00000-0  44925-4 0  9993,2 52488  53.2187 292.0922 0000783 101.6022 258.5058 15.08834628 59148,6917.897,95.438,540.303,539.22,0.0
52488.0,STARLINK-3892,PAYLOAD,2023-05-30 16:14:27,15.08841844,8e-05,53.218,291.2007,94.6797,265.4287,-1.7594e-05,-5.68e-06,0.0,0 STARLINK-3892,1 52488U 22049AP  23150.67670850 -.00000568  00000-0 -17594-4 0  9995,2 52488  53.2180 291.2007 0000800  94.6797 265.4287 15.08841844 59178,6917.875,95.437,540.293,539.186,0.0
52488.0,STARLINK-3892,PAYLOAD,2023-05-31 01:46:46,15.08844916,8.05e-05,53.2182,289.4171,91.2581,268.8503,-1.3038e-05,-4.95e-06,0.0,0 STARLINK-3892,1 52488U 22049AP  23151.07414579 -.00000495  00000-0 -13038-4 0  9992,2 52488  53.2182 289.4171 0000805  91.2581 268.8503 15.08844916 59395,6917.865,95.437,540.287,539.173,0.0
52488.0,STARLINK-3892,PAYLOAD,2023-05-31 09:43:42,15.08835587,8.53e-05,53.2182,287.9308,96.8215,263.2874,4.5724e-05,4.4e-06,0.0,0 STARLINK-3892,1 52488U 22049AP  23151.40535121  .00000440  00000-0  45724-4 0  9991,2 52488  53.2182 287.9308 0000853  96.8215 263.2874 15.08835587 59448,6917.894,95.438,540.349,539.169,0.0
52488.0,STARLINK-3892,PAYLOAD,2023-05-31 12:54:28,15.08838824,8.3e-05,53.2181,287.3354,96.1342,263.9745,7.7909e-05,9.52e-06,0.0,0 STARLINK-3892,1 52488U 22049AP  23151.53782846  .00000952  00000-0  77909-4 0  9991,2 52488  53.2181 287.3354 0000830  96.1342 263.9745 15.08838824 59307,6917.884,95.438,540.323,539.175,0.0
52488.0,STARLINK-3892,PAYLOAD,2023-05-31 16:05:14,15.08838425,7.94e-05,53.2182,286.7435,76.5453,283.5628,0.00010986,1.461e-05,0.0,0 STARLINK-3892,1 52488U 22049AP  23151.67030857  .00001461  00000-0  10986-3 0  9991,2 52488  53.2182 286.7435 0000794  76.5453 283.5628 15.08838425 59322,6917.885,95.438,540.299,539.201,0.0
52488.0,STARLINK-3892,PAYLOAD,2023-06-01 07:59:06,15.08834953,8.24e-05,53.2173,283.7701,105.0535,255.0549,0.00011729,1.579e-05,0.0,0 STARLINK-3892,1 52488U 22049AP  23152.33271037  .00001579  00000-0  11729-3 0  9998,2 52488  53.2173 283.7701 0000824 105.0535 255.0549 15.08834953 59427,6917.896,95.438,540.331,539.191,0.0
52488.0,STARLINK-3892,PAYLOAD,2023-06-02 01:28:20,15.08839263,8.67e-05,53.2186,280.4989,106.1371,253.9717,5.8706e-05,6.47e-06,0.0,0 STARLINK-3892,1 52488U 22049AP  23153.06135078  .00000647  00000-0  58706-4 0  9995,2 52488  53.2186 280.4989 0000867 106.1371 253.9717 15.08839263 59692,6917.883,95.438,540.347,539.148,0.0
52488.0,STARLINK-3892,PAYLOAD,2023-06-02 12:36:03,15.08830986,9.2e-05,53.2181,278.4175,100.6843,259.4253,-2.3829e-05,-6.67e-06,0.0,0 STARLINK-3892,1 52488U 22049AP  23153.52504070 -.00000667  00000-0 -23829-4 0  9990,2 52488  53.2181 278.4175 0000920 100.6843 259.4253 15.08830986 59761,6917.908,95.438,540.409,539.136,0.0
52488.0,STARLINK-3892,PAYLOAD,2023-06-02 14:11:26,15.0883298,8.53e-05,53.2179,278.1203,99.893,260.2159,-3.944e-05,-9.15e-06,0.0,0 STARLINK-3892,1 52488U 22049AP  23153.59128029 -.00000915  00000-0 -39440-4 0  9995,2 52488  53.2179 278.1203 0000853  99.8930 260.2159 15.08832980 59613,6917.902,95.438,540.357,539.177,0.0
52488.0,STARLINK-3892,PAYLOAD,2023-06-02 15:46:49,15.08834534,8.95e-05,53.2181,277.8238,102.9324,257.1768,-2.7537e-05,-7.26e-06,0.0,0 STARLINK-3892,1 52488U 22049AP  23153.65751874 -.00000726  00000-0 -27537-4 0  9996,2 52488  53.2181 277.8238 0000895 102.9324 257.1768 15.08834534 59628,6917.897,95.438,540.381,539.143,0.0
52488.0,STARLINK-3892,PAYLOAD,2023-06-03 14:02:13,15.08836305,0.000101,53.219,273.659,96.5105,263.6002,4.1466e-05,3.72e-06,0.0,0 STARLINK-3892,1 52488U 22049AP  23154.58487900  .00000372  00000-0  41466-4 0  9997,2 52488  53.2190 273.6590 0001010  96.5105 263.6002 15.08836305 59764,6917.892,95.438,540.455,539.058,0.0
52488.0,STARLINK-3892,PAYLOAD,2023-06-03 15:37:36,15.0883799,9.77e-05,53.2184,273.3607,99.0151,261.0952,5.056e-05,5.17e-06,0.0,0 STARLINK-3892,1 52488U 22049AP  23154.65111759  .00000517  00000-0  50560-4 0  9997,2 52488  53.2184 273.3607 0000977  99.0151 261.0952 15.08837990 59939,6917.887,95.438,540.427,539.076,0.0
52488.0,STARLINK-3892,PAYLOAD,2023-06-04 13:53:00,15.0884072,7.86e-05,53.2169,269.1976,75.1257,284.9822,0.0001096,1.457e-05,0.0,0 STARLINK-3892,1 52488U 22049AP  23155.57847511  .00001457  00000-0  10960-3 0  9994,2 52488  53.2169 269.1976 0000786  75.1257 284.9822 15.08840720 59917,6917.878,95.438,540.287,539.199,0.0
52488.0,STARLINK-3892,PAYLOAD,2023-06-04 17:03:46,15.08844152,7.95e-05,53.2167,268.6026,76.839,283.2691,0.0001365,1.886e-05,0.0,0 STARLINK-3892,1 52488U 22049AP  23155.71095198  .00001886  00000-0  13650-3 0  9991,2 52488  53.2167 268.6026 0000795  76.8390 283.2691 15.08844152 60091,6917.868,95.437,540.283,539.183,0.0
52488.0,STARLINK-3892,PAYLOAD,2023-06-05 10:33:00,15.08842613,7.96e-05,53.2167,265.3311,96.0965,264.0118,5.5517e-05,5.96e-06,0.0,0 STARLINK-3892,1 52488U 22049AP  23156.43959445  .00000596  00000-0  55517-4 0  9991,2 52488  53.2167 265.3311 0000796  96.0965 264.0118 15.08842613 60209,6917.872,95.437,540.288,539.187,0.0
52488.0,STARLINK-3892,PAYLOAD,2023-06-05 13:43:47,15.08846157,6.85e-05,53.2171,264.7354,94.1117,265.9953,6.5035e-05,7.48e-06,0.0,0 STARLINK-3892,1 52488U 22049AP  23156.57207180  .00000748  00000-0  65035-4 0  9993,2 52488  53.2171 264.7354 0000685  94.1117 265.9953 15.08846157 60067,6917.862,95.437,540.2,539.253,0.0
52488.0,STARLINK-3892,PAYLOAD,2023-06-06 11:59:11,15.0884149,7.51e-05,53.2165,260.5733,87.6971,272.4107,2.4817e-05,1.07e-06,0.0,0 STARLINK-3892,1 52488U 22049AP  23157.49943465  .00000107  00000-0  24817-4 0  9990,2 52488  53.2165 260.5733 0000751  87.6971 272.4107 15.08841490 60209,6917.876,95.437,540.26,539.221,0.0
